{
    "links": {
        "self": "http://www.neowsapp.com/rest/v1/neo/3457845?api_key=iIulBulltgU6a56xZRHN4H3l9WmuAYTsLGpBGhQ2"
    },
    "id": "3457845",
    "neo_reference_id": "3457845",
    "name": "(2009 HF21)",
    "designation": "2009 HF21",
    "nasa_jpl_url": "http://ssd.jpl.nasa.gov/sbdb.cgi?sstr=3457845",
    "absolute_magnitude_h": 26.2,
    "estimated_diameter": {
        "kilometers": {
            "estimated_diameter_min": 0.0152951935,
            "estimated_diameter_max": 0.0342010925
        },
        "meters": {
            "estimated_diameter_min": 15.2951935344,
            "estimated_diameter_max": 34.201092472
        },
        "miles": {
            "estimated_diameter_min": 0.0095039897,
            "estimated_diameter_max": 0.021251567
        },
        "feet": {
            "estimated_diameter_min": 50.1810827555,
            "estimated_diameter_max": 112.2083122258
        }
    },
    "is_potentially_hazardous_asteroid": false,
    "close_approach_data": [
        {
            "close_approach_date": "1912-03-11",
            "close_approach_date_full": "1912-Mar-11 07:18",
            "epoch_date_close_approach": -1824309720000,
            "relative_velocity": {
                "kilometers_per_second": "18.5745607139",
                "kilometers_per_hour": "66868.418570076",
                "miles_per_hour": "41549.4348609453"
            },
            "miss_distance": {
                "astronomical": "0.3455282443",
                "lunar": "134.4104870327",
                "kilometers": "51690289.372119641",
                "miles": "32118856.4446714058"
            },
            "orbiting_body": "Earth"
        },
        {
            "close_approach_date": "1917-08-11",
            "close_approach_date_full": "1917-Aug-11 16:35",
            "epoch_date_close_approach": -1653290700000,
            "relative_velocity": {
                "kilometers_per_second": "4.8391242417",
                "kilometers_per_hour": "17420.8472700507",
                "miles_per_hour": "10824.6370162156"
            },
            "miss_distance": {
                "astronomical": "1.856953651",
                "lunar": "722.354970239",
                "kilometers": "277796310.87832337",
                "miles": "172614623.333347706"
            },
            "orbiting_body": "Juptr"
        },
        {
            "close_approach_date": "2009-04-21",
            "close_approach_date_full": "2009-Apr-21 20:38",
            "epoch_date_close_approach": 1240346280000,
            "relative_velocity": {
                "kilometers_per_second": "8.2688067299",
                "kilometers_per_hour": "29767.7042275263",
                "miles_per_hour": "18496.4937740427"
            },
            "miss_distance": {
                "astronomical": "0.0190402839",
                "lunar": "7.4066704371",
                "kilometers": "2848385.915635293",
                "miles": "1769904.9363933234"
            },
            "orbiting_body": "Earth"
        }
    ],
    "orbital_data": {
        "orbit_id": "11",
        "orbit_determination_date": "2017-04-06 09:00:45",
        "first_observation_date": "2009-04-20",
        "last_observation_date": "2009-04-22",
        "data_arc_in_days": 2,
        "observations_used": 48,
        "orbit_uncertainty": "7",
        "minimum_orbit_intersection": ".00150765",
        "jupiter_tisserand_invariant": "3.323",
        "epoch_osculation": "2459000.5",
        "eccentricity": ".5706586090850344",
        "semi_major_axis": "2.338260716525343",
        "inclination": "4.270057363945797",
        "ascending_node_longitude": "34.72103773261813",
        "orbital_period": "1305.983912002464",
        "perihelion_distance": "1.003912108354815",
        "perihelion_argument": "188.7430596188878",
        "aphelion_distance": "3.67260932469587",
        "perihelion_time": "2458873.014335869282",
        "mean_anomaly": "35.14196359179325",
        "mean_motion": ".2756542379209039",
        "equinox": "J2000",
        "orbit_class": {
            "orbit_class_type": "APO",
            "orbit_class_description": "Near-Earth asteroid orbits which cross the Earth’s orbit similar to that of 1862 Apollo",
            "orbit_class_range": "a (semi-major axis) > 1.0 AU; q (perihelion) < 1.017 AU"
        }
    },
    "is_sentry_object": false
}